CCSDS_OMM_VERS = 2.0
CREATION_DATE  = 
ORIGINATOR     = 

OBJECT_NAME    = ATLAS CENTAUR 2
OBJECT_ID      = 1963-047A
CENTER_NAME    = EARTH
REF_FRAME      = TEME
TIME_SYSTEM    = UTC
MEAN_ELEMENT_THEORY = SGP/SGP4

EPOCH          = 2025-11-22T06:51:59.942880
MEAN_MOTION    = 14.11583307
ECCENTRICITY   = .05495704
INCLINATION    = 30.3565
RA_OF_ASC_NODE = 75.6841
ARG_OF_PERICENTER = 214.0483
MEAN_ANOMALY   = 142.3669

EPHEMERIS_TYPE = 0
CLASSIFICATION_TYPE = U
NORAD_CAT_ID   = 694
ELEMENT_SET_NO = 999
REV_AT_EPOCH   = 11643
BSTAR          = .57918598E-3
MEAN_MOTION_DOT = .482E-4
MEAN_MOTION_DDOT = 0

CCSDS_OMM_VERS = 2.0
CREATION_DATE  = 
ORIGINATOR     = 

OBJECT_NAME    = THOR AGENA D R/B
OBJECT_ID      = 1964-002A
CENTER_NAME    = EARTH
REF_FRAME      = TEME
TIME_SYSTEM    = UTC
MEAN_ELEMENT_THEORY = SGP/SGP4

EPOCH          = 2025-11-22T15:02:19.014144
MEAN_MOTION    = 14.33942349
ECCENTRICITY   = .0032393
INCLINATION    = 99.1219
RA_OF_ASC_NODE = 329.1574
ARG_OF_PERICENTER = 208.7322
MEAN_ANOMALY   = 151.2077

EPHEMERIS_TYPE = 0
CLASSIFICATION_TYPE = U
NORAD_CAT_ID   = 733
ELEMENT_SET_NO = 999
REV_AT_EPOCH   = 22295
BSTAR          = .10514E-3
MEAN_MOTION_DOT = .246E-5
MEAN_MOTION_DDOT = 0

CCSDS_OMM_VERS = 2.0
CREATION_DATE  = 
ORIGINATOR     = 

OBJECT_NAME    = SL-3 R/B
OBJECT_ID      = 1964-053B
CENTER_NAME    = EARTH
REF_FRAME      = TEME
TIME_SYSTEM    = UTC
MEAN_ELEMENT_THEORY = SGP/SGP4

EPOCH          = 2025-11-22T07:32:44.038176
MEAN_MOTION    = 14.61244148
ECCENTRICITY   = .00720087
INCLINATION    = 65.0769
RA_OF_ASC_NODE = 286.0030
ARG_OF_PERICENTER = 327.2218
MEAN_ANOMALY   = 32.4424

EPHEMERIS_TYPE = 0
CLASSIFICATION_TYPE = U
NORAD_CAT_ID   = 877
ELEMENT_SET_NO = 999
REV_AT_EPOCH   = 25110
BSTAR          = .12956019E-3
MEAN_MOTION_DOT = .54E-5
MEAN_MOTION_DDOT = 0

CCSDS_OMM_VERS = 2.0
CREATION_DATE  = 
ORIGINATOR     = 

OBJECT_NAME    = SL-8 R/B
OBJECT_ID      = 1967-045B
CENTER_NAME    = EARTH
REF_FRAME      = TEME
TIME_SYSTEM    = UTC
MEAN_ELEMENT_THEORY = SGP/SGP4

EPOCH          = 2025-11-22T19:00:12.061728
MEAN_MOTION    = 14.45514058
ECCENTRICITY   = .0065154
INCLINATION    = 74.0098
RA_OF_ASC_NODE = 187.7101
ARG_OF_PERICENTER = 221.5049
MEAN_ANOMALY   = 138.1152

EPHEMERIS_TYPE = 0
CLASSIFICATION_TYPE = U
NORAD_CAT_ID   = 2802
ELEMENT_SET_NO = 999
REV_AT_EPOCH   = 7357
BSTAR          = .90656E-4
MEAN_MOTION_DOT = .299E-5
MEAN_MOTION_DDOT = 0

CCSDS_OMM_VERS = 2.0
CREATION_DATE  = 
ORIGINATOR     = 

OBJECT_NAME    = SL-8 R/B
OBJECT_ID      = 1968-040B
CENTER_NAME    = EARTH
REF_FRAME      = TEME
TIME_SYSTEM    = UTC
MEAN_ELEMENT_THEORY = SGP/SGP4

EPOCH          = 2025-11-22T17:32:12.046272
MEAN_MOTION    = 15.02337112
ECCENTRICITY   = .0024158
INCLINATION    = 74.0295
RA_OF_ASC_NODE = 172.0906
ARG_OF_PERICENTER = 18.9104
MEAN_ANOMALY   = 341.2975

EPHEMERIS_TYPE = 0
CLASSIFICATION_TYPE = U
NORAD_CAT_ID   = 3230
ELEMENT_SET_NO = 999
REV_AT_EPOCH   = 7394
BSTAR          = .25006E-3
MEAN_MOTION_DOT = .3286E-4
MEAN_MOTION_DDOT = 0

CCSDS_OMM_VERS = 2.0
CREATION_DATE  = 
ORIGINATOR     = 

OBJECT_NAME    = OAO 2
OBJECT_ID      = 1968-110A
CENTER_NAME    = EARTH
REF_FRAME      = TEME
TIME_SYSTEM    = UTC
MEAN_ELEMENT_THEORY = SGP/SGP4

EPOCH          = 2025-11-22T12:06:29.854080
MEAN_MOTION    = 14.47225445
ECCENTRICITY   = .000498
INCLINATION    = 34.9916
RA_OF_ASC_NODE = 143.6250
ARG_OF_PERICENTER = 52.7288
MEAN_ANOMALY   = 307.3856

EPHEMERIS_TYPE = 0
CLASSIFICATION_TYPE = U
NORAD_CAT_ID   = 3597
ELEMENT_SET_NO = 999
REV_AT_EPOCH   = 356
BSTAR          = .76214E-4
MEAN_MOTION_DOT = .263E-5
MEAN_MOTION_DDOT = 0

CCSDS_OMM_VERS = 2.0
CREATION_DATE  = 
ORIGINATOR     = 

OBJECT_NAME    = ISIS 1
OBJECT_ID      = 1969-009A
CENTER_NAME    = EARTH
REF_FRAME      = TEME
TIME_SYSTEM    = UTC
MEAN_ELEMENT_THEORY = SGP/SGP4

EPOCH          = 2025-11-22T12:37:39.538848
MEAN_MOTION    = 11.30342881
ECCENTRICITY   = .1707109
INCLINATION    = 88.4500
RA_OF_ASC_NODE = 167.0072
ARG_OF_PERICENTER = 305.5538
MEAN_ANOMALY   = 39.7791

EPHEMERIS_TYPE = 0
CLASSIFICATION_TYPE = U
NORAD_CAT_ID   = 3669
ELEMENT_SET_NO = 999
REV_AT_EPOCH   = 33642
BSTAR          = .11693E-3
MEAN_MOTION_DOT = .161E-5
MEAN_MOTION_DDOT = 0

CCSDS_OMM_VERS = 2.0
CREATION_DATE  = 
ORIGINATOR     = 

OBJECT_NAME    = SERT 2
OBJECT_ID      = 1970-009A
CENTER_NAME    = EARTH
REF_FRAME      = TEME
TIME_SYSTEM    = UTC
MEAN_ELEMENT_THEORY = SGP/SGP4

EPOCH          = 2025-11-22T18:38:27.926304
MEAN_MOTION    = 13.58713907
ECCENTRICITY   = .0005742
INCLINATION    = 99.2619
RA_OF_ASC_NODE = 270.7940
ARG_OF_PERICENTER = 78.5622
MEAN_ANOMALY   = 338.2126

EPHEMERIS_TYPE = 0
CLASSIFICATION_TYPE = U
NORAD_CAT_ID   = 4327
ELEMENT_SET_NO = 999
REV_AT_EPOCH   = 76537
BSTAR          = .12E-3
MEAN_MOTION_DOT = .47E-6
MEAN_MOTION_DDOT = 0

CCSDS_OMM_VERS = 2.0
CREATION_DATE  = 
ORIGINATOR     = 

OBJECT_NAME    = SL-3 R/B
OBJECT_ID      = 1971-028B
CENTER_NAME    = EARTH
REF_FRAME      = TEME
TIME_SYSTEM    = UTC
MEAN_ELEMENT_THEORY = SGP/SGP4

EPOCH          = 2025-11-22T17:03:13.051872
MEAN_MOTION    = 15.53059236
ECCENTRICITY   = .0020204
INCLINATION    = 81.2383
RA_OF_ASC_NODE = 183.3030
ARG_OF_PERICENTER = 313.9872
MEAN_ANOMALY   = 45.9710

EPHEMERIS_TYPE = 0
CLASSIFICATION_TYPE = U
NORAD_CAT_ID   = 5118
ELEMENT_SET_NO = 999
REV_AT_EPOCH   = 97202
BSTAR          = .38988E-3
MEAN_MOTION_DOT = .24642E-3
MEAN_MOTION_DDOT = 0

CCSDS_OMM_VERS = 2.0
CREATION_DATE  = 
ORIGINATOR     = 

OBJECT_NAME    = ASTEX 1
OBJECT_ID      = 1971-089A
CENTER_NAME    = EARTH
REF_FRAME      = TEME
TIME_SYSTEM    = UTC
MEAN_ELEMENT_THEORY = SGP/SGP4

EPOCH          = 2025-11-22T08:32:16.304064
MEAN_MOTION    = 14.50606785
ECCENTRICITY   = .0017896
INCLINATION    = 92.7130
RA_OF_ASC_NODE = 117.0261
ARG_OF_PERICENTER = 87.7832
MEAN_ANOMALY   = 272.5423

EPHEMERIS_TYPE = 0
CLASSIFICATION_TYPE = U
NORAD_CAT_ID   = 5560
ELEMENT_SET_NO = 999
REV_AT_EPOCH   = 84674
BSTAR          = .17325315E-3
MEAN_MOTION_DOT = .68E-5
MEAN_MOTION_DDOT = 0

CCSDS_OMM_VERS = 2.0
CREATION_DATE  = 
ORIGINATOR     = 

OBJECT_NAME    = SL-8 R/B
OBJECT_ID      = 1971-119B
CENTER_NAME    = EARTH
REF_FRAME      = TEME
TIME_SYSTEM    = UTC
MEAN_ELEMENT_THEORY = SGP/SGP4

EPOCH          = 2025-11-22T14:46:47.343936
MEAN_MOTION    = 14.35186425
ECCENTRICITY   = .0560624
INCLINATION    = 73.8888
RA_OF_ASC_NODE = 15.4761
ARG_OF_PERICENTER = 3.8236
MEAN_ANOMALY   = 356.6927

EPHEMERIS_TYPE = 0
CLASSIFICATION_TYPE = U
NORAD_CAT_ID   = 5730
ELEMENT_SET_NO = 999
REV_AT_EPOCH   = 64011
BSTAR          = .4898E-3
MEAN_MOTION_DOT = .9277E-4
MEAN_MOTION_DDOT = 0

CCSDS_OMM_VERS = 2.0
CREATION_DATE  = 
ORIGINATOR     = 

OBJECT_NAME    = OAO 3 (COPERNICUS)
OBJECT_ID      = 1972-065A
CENTER_NAME    = EARTH
REF_FRAME      = TEME
TIME_SYSTEM    = UTC
MEAN_ELEMENT_THEORY = SGP/SGP4

EPOCH          = 2025-11-22T00:56:04.276032
MEAN_MOTION    = 14.59880497
ECCENTRICITY   = .00066991
INCLINATION    = 35.0045
RA_OF_ASC_NODE = 190.5891
ARG_OF_PERICENTER = 353.1481
MEAN_ANOMALY   = 153.1026

EPHEMERIS_TYPE = 0
CLASSIFICATION_TYPE = U
NORAD_CAT_ID   = 6153
ELEMENT_SET_NO = 999
REV_AT_EPOCH   = 83045
BSTAR          = .83839433E-4
MEAN_MOTION_DOT = .386E-5
MEAN_MOTION_DDOT = 0

