ATLAS CENTAUR 2         
1 00694U 63047A   25326.28611045  .00004820  00000+0  57919-3 0  9991
2 00694  30.3565  75.6841 0549570 214.0483 142.3669 14.11583307116435
THOR AGENA D R/B        
1 00733U 64002A   25326.62660896  .00000246  00000+0  10514-3 0  9991
2 00733  99.1219 329.1574 0032393 208.7322 151.2077 14.33942349222956
SL-3 R/B                
1 00877U 64053B   25326.31439859  .00000540  00000+0  12956-3 0  9994
2 00877  65.0769 286.0030 0072008 327.2218  32.4424 14.61244148251101
SL-8 R/B                
1 02802U 67045B   25326.79180627  .00000299  00000+0  90656-4 0  9991
2 02802  74.0098 187.7101 0065154 221.5049 138.1152 14.45514058 73571
SL-8 R/B                
1 03230U 68040B   25326.73069498  .00003286  00000+0  25006-3 0  9994
2 03230  74.0295 172.0906 0024158  18.9104 341.2975 15.02337112 73944
OAO 2                   
1 03597U 68110A   25326.50451220  .00000263  00000+0  76214-4 0  9991
2 03597  34.9916 143.6250 0004980  52.7288 307.3856 14.47225445  3566
ISIS 1                  
1 03669U 69009A   25326.52615207  .00000161  00000+0  11693-3 0  9994
2 03669  88.4500 167.0072 1707109 305.5538  39.7791 11.30342881336423
SERT 2                  
1 04327U 70009A   25326.77671211  .00000047  00000+0  12000-3 0  9998
2 04327  99.2619 270.7940 0005742  78.5622 338.2126 13.58713907765378
SL-3 R/B                
1 05118U 71028B   25326.71056773  .00024642  00000+0  38988-3 0  9993
2 05118  81.2383 183.3030 0020204 313.9872  45.9710 15.53059236972026
ASTEX 1                 
1 05560U 71089A   25326.35574426  .00000680  00000+0  17325-3 0  9999
2 05560  92.7130 117.0261 0017896  87.7832 272.5423 14.50606785846740
SL-8 R/B                
1 05730U 71119B   25326.61582574  .00009277  00000+0  48980-3 0  9996
2 05730  73.8888  15.4761 0560624   3.8236 356.6927 14.35186425640117
OAO 3 (COPERNICUS)      
1 06153U 72065A   25326.03893838  .00000386  00000+0  83839-4 0  9996
2 06153  35.0045 190.5891 0006699 353.1481 153.1026 14.59880497830455
